{"type": "FeatureCollection", "features": [ {"type": "Feature", "properties": {"norad_id": 66980, "name": "STARLINK-36086", "group": "last-30-days", "lat": 28.2061066697964, "lon": -139.33430556691314, "alt_km": 400.0124396617639, "timestamp": "2025-12-27T18:38:02.206072+00:00", "meta": {"OBJECT_NAME": "STARLINK-36086", "OBJECT_ID": "2025-288X", "EPOCH": "2025-12-27T12:00:02.000160", "MEAN_MOTION": 15.55693451, "ECCENTRICITY": 0.0001313, "INCLINATION": 43.0002, "RA_OF_ASC_NODE": 77.4322, "ARG_OF_PERICENTER": 279.4373, "MEAN_ANOMALY": 107.452, "EPHEMERIS_TYPE": 0, "CLASSIFICATION_TYPE": "U", "NORAD_CAT_ID": 66980, "ELEMENT_SET_NO": 999, "REV_AT_EPOCH": 420, "BSTAR": -0.032548, "MEAN_MOTION_DOT": -0.02051098, "MEAN_MOTION_DDOT": 0}, "tle": {"line1": "1 66980U 25288X   25361.50002315 -.02051098  00000+0 -32548-1 0  9996", "line2": "2 66980  43.0002  77.4322 0001313 279.4373 107.4520 15.55693451  4207"}}, "geometry": {"type": "Point", "coordinates": [-139.33430556691314, 28.2061066697964]}}, {"type": "Feature", "properties": {"norad_id": 66981, "name": "STARLINK-36142", "group": "last-30-days", "lat": 27.12716753489958, "lon": -137.55280240526392, "alt_km": 400.22581007581357, "timestamp": "2025-12-27T18:38:02.206083+00:00", "meta": {"OBJECT_NAME": "STARLINK-36142", "OBJECT_ID": "2025-288Y", "EPOCH": "2025-12-27T12:00:02.000160", "MEAN_MOTION": 15.5568811, "ECCENTRICITY": 0.0001439, "INCLINATION": 43.0004, "RA_OF_ASC_NODE": 77.4276, "ARG_OF_PERICENTER": 278.7818, "MEAN_ANOMALY": 110.024, "EPHEMERIS_TYPE": 0, "CLASSIFICATION_TYPE": "U", "NORAD_CAT_ID": 66981, "ELEMENT_SET_NO": 999, "REV_AT_EPOCH": 420, "BSTAR": -0.032387, "MEAN_MOTION_DOT": -0.02041755, "MEAN_MOTION_DDOT": 0}, "tle": {"line1": "1 66981U 25288Y   25361.50002315 -.02041755  00000+0 -32387-1 0  9997", "line2": "2 66981  43.0004  77.4276 0001439 278.7818 110.0240 15.55688110  4208"}}, "geometry": {"type": "Point", "coordinates": [-137.55280240526392, 27.12716753489958]}}, {"type": "Feature", "properties": {"norad_id": 66982, "name": "STARLINK-36113", "group": "last-30-days", "lat": 26.022853636391737, "lon": -135.80179978655235, "alt_km": 400.48564349784465, "timestamp": "2025-12-27T18:38:02.206093+00:00", "meta": {"OBJECT_NAME": "STARLINK-36113", "OBJECT_ID": "2025-288Z", "EPOCH": "2025-12-27T12:00:02.000160", "MEAN_MOTION": 15.55698179, "ECCENTRICITY": 0.0001596, "INCLINATION": 43.0002, "RA_OF_ASC_NODE": 77.4225, "ARG_OF_PERICENTER": 279.9553, "MEAN_ANOMALY": 110.7653, "EPHEMERIS_TYPE": 0, "CLASSIFICATION_TYPE": "U", "NORAD_CAT_ID": 66982, "ELEMENT_SET_NO": 999, "REV_AT_EPOCH": 420, "BSTAR": -0.032671, "MEAN_MOTION_DOT": -0.02058532, "MEAN_MOTION_DDOT": 0}, "tle": {"line1": "1 66982U 25288Z   25361.50002315 -.02058532  00000+0 -32671-1 0  9995", "line2": "2 66982  43.0002  77.4225 0001596 279.9553 110.7653 15.55698179  4205"}}, "geometry": {"type": "Point", "coordinates": [-135.80179978655235, 26.022853636391737]}}, {"type": "Feature", "properties": {"norad_id": 66983, "name": "STARLINK-36145", "group": "last-30-days", "lat": 23.755590315699155, "lon": -132.40035944203385, "alt_km": 400.7044659234689, "timestamp": "2025-12-27T18:38:02.206103+00:00", "meta": {"OBJECT_NAME": "STARLINK-36145", "OBJECT_ID": "2025-288AA", "EPOCH": "2025-12-27T12:00:02.000160", "MEAN_MOTION": 15.55693224, "ECCENTRICITY": 0.0001448, "INCLINATION": 42.9996, "RA_OF_ASC_NODE": 77.4129, "ARG_OF_PERICENTER": 279.1889, "MEAN_ANOMALY": 115.3649, "EPHEMERIS_TYPE": 0, "CLASSIFICATION_TYPE": "U", "NORAD_CAT_ID": 66983, "ELEMENT_SET_NO": 999, "REV_AT_EPOCH": 420, "BSTAR": -0.032476, "MEAN_MOTION_DOT": -0.02047108, "MEAN_MOTION_DDOT": 0}, "tle": {"line1": "1 66983U 25288AA  25361.50002315 -.02047108  00000+0 -32476-1 0  9996", "line2": "2 66983  42.9996  77.4129 0001448 279.1889 115.3649 15.55693224  4201"}}, "geometry": {"type": "Point", "coordinates": [-132.40035944203385, 23.755590315699155]}}, {"type": "Feature", "properties": {"norad_id": 66984, "name": "STARLINK-35591", "group": "last-30-days", "lat": 24.897658594219234, "lon": -134.084396578155, "alt_km": 400.49769804890366, "timestamp": "2025-12-27T18:38:02.206112+00:00", "meta": {"OBJECT_NAME": "STARLINK-35591", "OBJECT_ID": "2025-288AB", "EPOCH": "2025-12-27T12:00:02.000160", "MEAN_MOTION": 15.55696812, "ECCENTRICITY": 0.000141, "INCLINATION": 42.9996, "RA_OF_ASC_NODE": 77.4172, "ARG_OF_PERICENTER": 277.0093, "MEAN_ANOMALY": 115.6289, "EPHEMERIS_TYPE": 0, "CLASSIFICATION_TYPE": "U", "NORAD_CAT_ID": 66984, "ELEMENT_SET_NO": 999, "REV_AT_EPOCH": 420, "BSTAR": -0.032596, "MEAN_MOTION_DOT": -0.02054101, "MEAN_MOTION_DDOT": 0}, "tle": {"line1": "1 66984U 25288AB  25361.50002315 -.02054101  00000+0 -32596-1 0  9991", "line2": "2 66984  42.9996  77.4172 0001410 277.0093 115.6289 15.55696812  4202"}}, "geometry": {"type": "Point", "coordinates": [-134.084396578155, 24.897658594219234]}}, {"type": "Feature", "properties": {"norad_id": 66985, "name": "STARLINK-36103", "group": "last-30-days", "lat": 22.59388428381741, "lon": -130.74444519715212, "alt_km": 400.9342632536409, "timestamp": "2025-12-27T18:38:02.206126+00:00", "meta": {"OBJECT_NAME": "STARLINK-36103", "OBJECT_ID": "2025-288AC", "EPOCH": "2025-12-27T12:00:02.000160", "MEAN_MOTION": 15.55693696, "ECCENTRICITY": 0.0001517, "INCLINATION": 42.9996, "RA_OF_ASC_NODE": 77.4078, "ARG_OF_PERICENTER": 281.2385, "MEAN_ANOMALY": 115.233, "EPHEMERIS_TYPE": 0, "CLASSIFICATION_TYPE": "U", "NORAD_CAT_ID": 66985, "ELEMENT_SET_NO": 999, "REV_AT_EPOCH": 420, "BSTAR": -0.032519, "MEAN_MOTION_DOT": -0.02049621, "MEAN_MOTION_DDOT": 0}, "tle": {"line1": "1 66985U 25288AC  25361.50002315 -.02049621  00000+0 -32519-1 0  9998", "line2": "2 66985  42.9996  77.4078 0001517 281.2385 115.2330 15.55693696  4207"}}, "geometry": {"type": "Point", "coordinates": [-130.74444519715212, 22.59388428381741]}}, {"type": "Feature", "properties": {"norad_id": 66986, "name": "STARLINK-36135", "group": "last-30-days", "lat": 21.41386465007044, "lon": -129.11456086132122, "alt_km": 401.03196406549523, "timestamp": "2025-12-27T18:38:02.206136+00:00", "meta": {"OBJECT_NAME": "STARLINK-36135", "OBJECT_ID": "2025-288AD", "EPOCH": "2025-12-27T12:00:02.000160", "MEAN_MOTION": 15.55697095, "ECCENTRICITY": 0.0001415, "INCLINATION": 42.9998, "RA_OF_ASC_NODE": 77.4024, "ARG_OF_PERICENTER": 280.1238, "MEAN_ANOMALY": 118.2659, "EPHEMERIS_TYPE": 0, "CLASSIFICATION_TYPE": "U", "NORAD_CAT_ID": 66986, "ELEMENT_SET_NO": 999, "REV_AT_EPOCH": 420, "BSTAR": -0.032627, "MEAN_MOTION_DOT": -0.02055856, "MEAN_MOTION_DDOT": 0}, "tle": {"line1": "1 66986U 25288AD  25361.50002315 -.02055856  00000+0 -32627-1 0  9996", "line2": "2 66986  42.9998  77.4024 0001415 280.1238 118.2659 15.55697095  4207"}}, "geometry": {"type": "Point", "coordinates": [-129.11456086132122, 21.41386465007044]}}, {"type": "Feature", "properties": {"norad_id": 66987, "name": "STARLINK-36147", "group": "last-30-days", "lat": 20.222368296304797, "lon": -127.5153606213094, "alt_km": 401.28027653532354, "timestamp": "2025-12-27T18:38:02.206146+00:00", "meta": {"OBJECT_NAME": "STARLINK-36147", "OBJECT_ID": "2025-288AE", "EPOCH": "2025-12-27T12:00:02.000160", "MEAN_MOTION": 15.55695607, "ECCENTRICITY": 0.0001553, "INCLINATION": 43.0001, "RA_OF_ASC_NODE": 77.3981, "ARG_OF_PERICENTER": 281.4441, "MEAN_ANOMALY": 118.8604, "EPHEMERIS_TYPE": 0, "CLASSIFICATION_TYPE": "U", "NORAD_CAT_ID": 66987, "ELEMENT_SET_NO": 999, "REV_AT_EPOCH": 420, "BSTAR": -0.032573, "MEAN_MOTION_DOT": -0.02052798, "MEAN_MOTION_DDOT": 0}, "tle": {"line1": "1 66987U 25288AE  25361.50002315 -.02052798  00000+0 -32573-1 0  9999", "line2": "2 66987  43.0001  77.3981 0001553 281.4441 118.8604 15.55695607  4202"}}, "geometry": {"type": "Point", "coordinates": [-127.5153606213094, 20.222368296304797]}}, {"type": "Feature", "properties": {"norad_id": 66988, "name": "YAOGAN-47", "group": "last-30-days", "lat": -42.24239822765104, "lon": 73.83052859213186, "alt_km": 502.7565260940555, "timestamp": "2025-12-27T18:38:02.206156+00:00", "meta": {"OBJECT_NAME": "YAOGAN-47", "OBJECT_ID": "2025-289A", "EPOCH": "2025-12-20T02:21:43.539840", "MEAN_MOTION": 15.23243112, "ECCENTRICITY": 6.467e-05, "INCLINATION": 97.5265, "RA_OF_ASC_NODE": 59.2376, "ARG_OF_PERICENTER": 91.4531, "MEAN_ANOMALY": 268.678, "EPHEMERIS_TYPE": 0, "CLASSIFICATION_TYPE": "U", "NORAD_CAT_ID": 66988, "ELEMENT_SET_NO": 999, "REV_AT_EPOCH": 166, "BSTAR": 0.00010945697, "MEAN_MOTION_DOT": 2.52e-05, "MEAN_MOTION_DDOT": 0}, "tle": {"line1": "1 66988U 25289A   25354.09842060  .00002520  00000+0  10946-3 0  9992", "line2": "2 66988  97.5265  59.2376 0000646  91.4531 268.6780 15.23243112  1668"}}, "geometry": {"type": "Point", "coordinates": [73.83052859213186, -42.24239822765104]}}, {"type": "Feature", "properties": {"norad_id": 66989, "name": "CZ-4B R/B", "group": "last-30-days", "lat": 80.42137687386008, "lon": 16.690885254073542, "alt_km": 417.23691156995847, "timestamp": "2025-12-27T18:38:02.206166+00:00", "meta": {"OBJECT_NAME": "CZ-4B R/B", "OBJECT_ID": "2025-289B", "EPOCH": "2025-12-27T10:37:57.809280", "MEAN_MOTION": 15.70879621, "ECCENTRICITY": 0.0137707, "INCLINATION": 97.5228, "RA_OF_ASC_NODE": 67.8786, "ARG_OF_PERICENTER": 307.1065, "MEAN_ANOMALY": 51.7676, "EPHEMERIS_TYPE": 0, "CLASSIFICATION_TYPE": "U", "NORAD_CAT_ID": 66989, "ELEMENT_SET_NO": 999, "REV_AT_EPOCH": 287, "BSTAR": 0.00059203, "MEAN_MOTION_DOT": 0.00129868, "MEAN_MOTION_DDOT": 7.2162e-06}, "tle": {"line1": "1 66989U 25289B   25361.44303020  .00129868  72162-5  59203-3 0  9996", "line2": "2 66989  97.5228  67.8786 0137707 307.1065  51.7676 15.70879621  2877"}}, "geometry": {"type": "Point", "coordinates": [16.690885254073542, 80.42137687386008]}}]}